COSMOS 2058             
1 20465U 90010A   26095.85781236  .00005442  00000+0  31872-3 0  9997
2 20465  82.4729  20.6603 0008212 233.4905 126.5570 15.11601978946348
SL-14 R/B               
1 20466U 90010B   26095.86767781  .00000696  00000+0  81305-4 0  9991
2 20466  82.5009 241.8534 0019145 206.5314 153.4923 14.83597812932517
SL-14 R/B               
1 20511U 90018B   26095.70902315  .00000635  00000+0  76594-4 0  9994
2 20511  82.5244 197.8419 0016309   8.3149 351.8332 14.82173741926582
HST                     
1 20580U 90037B   26095.62622796  .00009304  00000+0  30389-3 0  9997
2 20580  28.4724 216.1877 0002248  70.2835 289.8004 15.29942321777445
SL-16 R/B               
1 20625U 90046B   26095.84282063 -.00000022  00000+0  13465-4 0  9996
2 20625  70.9989 240.8822 0016594 264.4304  95.4926 14.15019412852236
COSMOS 2084             
1 20663U 90055A   26095.81766646  .00003783  00000+0  27280-3 0  9994
2 20663  62.7899 243.0394 0012712 199.4233 160.6385 15.05824535940403
SL-6 R/B(2)             
1 20666U 90055D   26095.50510301  .00002649  00000+0  20501-3 0  9997
2 20666  62.7826 162.6522 0029201 352.9885   7.0802 15.03732466942224
SL-8 R/B                
1 20775U 90078B   26095.71541425  .00013975  00000+0  41366-3 0  9993
2 20775  82.9045 226.9868 0357348 282.7694  73.3819 14.89873570813320
SL-8 R/B                
1 21088U 91006B   26095.88614558  .00000127  00000+0  11209-3 0  9997
2 21088  82.9432 149.8249 0021366 321.9274 213.7799 13.77499070767816
OKEAN-3                 
1 21397U 91039A   26095.87419307  .00003900  00000+0  27270-3 0  9997
2 21397  82.5152 310.5008 0013002 236.2399 123.7589 15.04978735869124
COSMOS 2151             
1 21422U 91042A   26095.83069271  .00003474  00000+0  27531-3 0  9993
2 21422  82.4965  57.4881 0011618 335.8870  24.1809 15.00235690867265
SL-14 R/B               
1 21423U 91042B   26095.76783234  .00000649  00000+0  78883-4 0  9996
2 21423  82.4961 194.7975 0017855 148.1133 212.1166 14.81859146857087
